{"type": "FeatureCollection", "features": [{"type": "Feature", "properties": {"len_m": 339.5}, "geometry": {"type": "LineString", "coordinates": [[101.2826064, 2.9050303], [101.2823905, 2.9050842], [101.2822286, 2.905192], [101.2820667, 2.9052459], [101.2819048, 2.9053537], [101.2817429, 2.9054076], [101.281581, 2.9055154], [101.2814191, 2.9056232], [101.2812572, 2.9056771], [101.2810953, 2.9057849], [101.2809334, 2.9058388], [101.2807715, 2.9059466], [101.2806096, 2.9060544], [101.2804476, 2.9061083], [101.2803397, 2.90627], [101.2802318, 2.9064856]]}}, {"type": "Feature", "properties": {"len_m": 25.4}, "geometry": {"type": "LineString", "coordinates": [[101.2826064, 2.9050303], [101.2826604, 2.9052459]]}}, {"type": "Feature", "properties": {"len_m": 510.9}, "geometry": {"type": "LineString", "coordinates": [[101.2830382, 2.9058388], [101.2831461, 2.9060005], [101.2832001, 2.9061622], [101.283308, 2.9063239], [101.2834159, 2.9064856], [101.2834699, 2.9066473], [101.2835779, 2.906809], [101.2836858, 2.9069707], [101.2837398, 2.9071324], [101.2837937, 2.9072941], [101.2836318, 2.9074019], [101.2834699, 2.9074558], [101.283308, 2.9075636], [101.2831461, 2.9076714], [101.2829842, 2.9077253], [101.2828223, 2.907833], [101.2826604, 2.9079408], [101.2824985, 2.9080486], [101.2823366, 2.9081564], [101.2821747, 2.9082103], [101.2820127, 2.908372], [101.2818508, 2.9084259], [101.2816889, 2.9084798]]}}, {"type": "Feature", "properties": {"len_m": 141.3}, "geometry": {"type": "LineString", "coordinates": [[101.2802318, 2.9064856], [101.2800159, 2.9065395], [101.279854, 2.9065934], [101.2796921, 2.9067012], [101.2795841, 2.9068629], [101.2795302, 2.9070246], [101.2794222, 2.9072402]]}}, {"type": "Feature", "properties": {"len_m": 299.6}, "geometry": {"type": "LineString", "coordinates": [[101.2802318, 2.9064856], [101.2803937, 2.9066473], [101.2805016, 2.906809], [101.2805556, 2.9069707], [101.2806635, 2.9071324], [101.2807715, 2.9072941], [101.2808794, 2.9074558], [101.2809873, 2.9076175], [101.2810953, 2.9077791], [101.2811492, 2.9079408], [101.2812032, 2.9081025], [101.2812572, 2.9082642], [101.2813111, 2.9084259], [101.281527, 2.9086415]]}}, {"type": "Feature", "properties": {"len_m": 56.9}, "geometry": {"type": "LineString", "coordinates": [[101.2789905, 2.9070246], [101.2791524, 2.9070785], [101.2793143, 2.9071863]]}}, {"type": "Feature", "properties": {"len_m": 310.2}, "geometry": {"type": "LineString", "coordinates": [[101.2794222, 2.9072402], [101.2794222, 2.9074558], [101.2794762, 2.9076175], [101.2795302, 2.9077791], [101.2795841, 2.9079408], [101.2796381, 2.9081025], [101.279746, 2.9082642], [101.2798, 2.9084259], [101.279908, 2.9085876], [101.2800159, 2.9087493], [101.2801238, 2.908911], [101.2801778, 2.9090727], [101.2803397, 2.9091805], [101.2805016, 2.9092344], [101.2807175, 2.9093422]]}}, {"type": "Feature", "properties": {"len_m": 125.8}, "geometry": {"type": "LineString", "coordinates": [[101.281527, 2.9086415], [101.2813111, 2.9088032], [101.2811492, 2.9088571], [101.2810413, 2.9090188], [101.2808794, 2.9091805], [101.2807175, 2.9093422]]}}, {"type": "Feature", "properties": {"len_m": 324.0}, "geometry": {"type": "LineString", "coordinates": [[101.281527, 2.9086415], [101.2816889, 2.9088571], [101.2817969, 2.9090188], [101.2819048, 2.9091805], [101.2819588, 2.9093422], [101.2820667, 2.9095039], [101.2821747, 2.9096656], [101.2822286, 2.9098273], [101.2823366, 2.909989], [101.2824445, 2.9101507], [101.2825524, 2.9103124], [101.2826064, 2.9104741], [101.2826064, 2.9106358], [101.2827143, 2.9107975], [101.2829302, 2.9109592]]}}, {"type": "Feature", "properties": {"len_m": 44.5}, "geometry": {"type": "LineString", "coordinates": [[101.2855747, 2.9091266], [101.2856287, 2.9092883], [101.2856287, 2.9095039]]}}, {"type": "Feature", "properties": {"len_m": 326.1}, "geometry": {"type": "LineString", "coordinates": [[101.2807175, 2.9093422], [101.2807715, 2.9095578], [101.2808254, 2.9097195], [101.2808254, 2.9098812], [101.2808794, 2.9100429], [101.2808794, 2.9102046], [101.2809873, 2.9103663], [101.2810413, 2.910528], [101.2811492, 2.9106897], [101.2812572, 2.9108514], [101.2813651, 2.9110131], [101.2814731, 2.9111748], [101.281635, 2.9112826], [101.2817969, 2.9114443], [101.2819588, 2.9114982]]}}, {"type": "Feature", "properties": {"len_m": 36.4}, "geometry": {"type": "LineString", "coordinates": [[101.285035, 2.9093961], [101.285143, 2.9095578]]}}, {"type": "Feature", "properties": {"len_m": 55.5}, "geometry": {"type": "LineString", "coordinates": [[101.2856287, 2.9095039], [101.2854668, 2.9095578], [101.2853049, 2.9095578]]}}, {"type": "Feature", "properties": {"len_m": 96.8}, "geometry": {"type": "LineString", "coordinates": [[101.2856287, 2.9095039], [101.2858446, 2.9096117], [101.2860065, 2.9097195], [101.2861684, 2.9098812]]}}, {"type": "Feature", "properties": {"len_m": 155.8}, "geometry": {"type": "LineString", "coordinates": [[101.2873017, 2.9096117], [101.2874636, 2.90945], [101.2876255, 2.9093961], [101.2877874, 2.9093961], [101.2878954, 2.9095578], [101.2878954, 2.9097195], [101.2880033, 2.9098812], [101.2880573, 2.9100429]]}}, {"type": "Feature", "properties": {"len_m": 60.4}, "geometry": {"type": "LineString", "coordinates": [[101.2873017, 2.9096117], [101.2870858, 2.9096117], [101.2869239, 2.9097195]]}}, {"type": "Feature", "properties": {"len_m": 172.8}, "geometry": {"type": "LineString", "coordinates": [[101.2873017, 2.9096117], [101.2873557, 2.9098273], [101.2874636, 2.909989], [101.2875176, 2.9101507], [101.2876795, 2.9103124], [101.2877335, 2.9104741], [101.2878414, 2.9106358], [101.2878954, 2.9107975]]}}, {"type": "Feature", "properties": {"len_m": 176.3}, "geometry": {"type": "LineString", "coordinates": [[101.2851969, 2.9096656], [101.2849811, 2.9097734], [101.2848191, 2.9098273], [101.2846572, 2.9099351], [101.2844953, 2.909989], [101.2843334, 2.9100968], [101.2841715, 2.9101507], [101.2840096, 2.9102046]]}}, {"type": "Feature", "properties": {"len_m": 304.5}, "geometry": {"type": "LineString", "coordinates": [[101.2851969, 2.9096656], [101.2853588, 2.9098273], [101.2854128, 2.909989], [101.2855747, 2.9101507], [101.2856287, 2.9103124], [101.2857366, 2.9104741], [101.2857906, 2.9106358], [101.2858446, 2.9107975], [101.2860065, 2.9109592], [101.2861144, 2.9111209], [101.2861684, 2.9112826], [101.2862223, 2.9114443], [101.2863303, 2.911606], [101.2863842, 2.9117677]]}}, {"type": "Feature", "properties": {"len_m": 63.9}, "geometry": {"type": "LineString", "coordinates": [[101.28687, 2.9098273], [101.2866541, 2.9098812], [101.2864922, 2.9098812]]}}, {"type": "Feature", "properties": {"len_m": 121.9}, "geometry": {"type": "LineString", "coordinates": [[101.28687, 2.9098273], [101.2869779, 2.909989], [101.2869779, 2.9101507], [101.2870319, 2.9103124], [101.2871398, 2.9104741], [101.2872478, 2.9106358]]}}, {"type": "Feature", "properties": {"len_m": 200.3}, "geometry": {"type": "LineString", "coordinates": [[101.2863303, 2.9099351], [101.2863303, 2.9101507], [101.2863842, 2.9103124], [101.2864922, 2.9104741], [101.2866001, 2.9106358], [101.2867081, 2.9107975], [101.286762, 2.9109592], [101.28687, 2.9111209], [101.2869239, 2.9112826], [101.2870319, 2.9114443]]}}, {"type": "Feature", "properties": {"len_m": 33.9}, "geometry": {"type": "LineString", "coordinates": [[101.2836318, 2.9100429], [101.2837937, 2.9102046]]}}, {"type": "Feature", "properties": {"len_m": 125.8}, "geometry": {"type": "LineString", "coordinates": [[101.2838477, 2.9104202], [101.2836858, 2.9104741], [101.2835239, 2.9105819], [101.283362, 2.9106897], [101.2832001, 2.9107436], [101.2830382, 2.9109053]]}}, {"type": "Feature", "properties": {"len_m": 79.9}, "geometry": {"type": "LineString", "coordinates": [[101.2838477, 2.9104202], [101.2840096, 2.9105819], [101.2841175, 2.9107436], [101.2842255, 2.9109053]]}}, {"type": "Feature", "properties": {"len_m": 38.5}, "geometry": {"type": "LineString", "coordinates": [[101.2882732, 2.9108514], [101.2881113, 2.9109053], [101.2879494, 2.9109053]]}}, {"type": "Feature", "properties": {"len_m": 59.4}, "geometry": {"type": "LineString", "coordinates": [[101.2879494, 2.9109053], [101.2877874, 2.911067], [101.2876255, 2.9111209]]}}, {"type": "Feature", "properties": {"len_m": 42.0}, "geometry": {"type": "LineString", "coordinates": [[101.2829302, 2.9109592], [101.2829302, 2.9111748]]}}, {"type": "Feature", "properties": {"len_m": 23.0}, "geometry": {"type": "LineString", "coordinates": [[101.2874097, 2.9110131], [101.2875176, 2.9111748]]}}, {"type": "Feature", "properties": {"len_m": 67.8}, "geometry": {"type": "LineString", "coordinates": [[101.2875176, 2.9111748], [101.2873557, 2.9113365], [101.2871938, 2.9113904]]}}, {"type": "Feature", "properties": {"len_m": 97.8}, "geometry": {"type": "LineString", "coordinates": [[101.2829302, 2.9113365], [101.2827143, 2.9113904], [101.2825524, 2.9113904], [101.2823905, 2.9113904], [101.2822286, 2.9114982]]}}, {"type": "Feature", "properties": {"len_m": 99.3}, "geometry": {"type": "LineString", "coordinates": [[101.2829302, 2.9113365], [101.2830921, 2.9114982], [101.283254, 2.9116599], [101.283362, 2.9118215], [101.2835239, 2.9119832]]}}, {"type": "Feature", "properties": {"len_m": 83.4}, "geometry": {"type": "LineString", "coordinates": [[101.2870319, 2.9114443], [101.2869239, 2.9116599], [101.286762, 2.9117677], [101.2866001, 2.9118215]]}}, {"type": "Feature", "properties": {"len_m": 323.2}, "geometry": {"type": "LineString", "coordinates": [[101.2821207, 2.9115521], [101.2821747, 2.9117677], [101.2822286, 2.9119293], [101.2822286, 2.912091], [101.2822826, 2.9122527], [101.2823366, 2.9124144], [101.2823366, 2.9125761], [101.2824445, 2.9127378], [101.2825524, 2.9128995], [101.2826064, 2.9130612], [101.2826604, 2.9132229], [101.2827683, 2.9133846], [101.2829302, 2.9135463], [101.2830921, 2.9136541], [101.283254, 2.913708]]}}, {"type": "Feature", "properties": {"len_m": 79.8}, "geometry": {"type": "LineString", "coordinates": [[101.2840636, 2.911606], [101.2839556, 2.9117677], [101.2837937, 2.9118215], [101.2836318, 2.9119293]]}}, {"type": "Feature", "properties": {"len_m": 187.2}, "geometry": {"type": "LineString", "coordinates": [[101.2864922, 2.9118215], [101.2863842, 2.9120371], [101.2862223, 2.9121449], [101.2860604, 2.9122527], [101.2858985, 2.9123066], [101.2857366, 2.9123605], [101.2855747, 2.9125222], [101.2854128, 2.9125761], [101.2851969, 2.91263]]}}, {"type": "Feature", "properties": {"len_m": 183.7}, "geometry": {"type": "LineString", "coordinates": [[101.2835239, 2.9119832], [101.2835779, 2.9121988], [101.2836858, 2.9123605], [101.2837398, 2.9125222], [101.2838477, 2.9126839], [101.2839556, 2.9128456], [101.2839556, 2.9130073], [101.2840096, 2.913169], [101.2841715, 2.9133846]]}}, {"type": "Feature", "properties": {"len_m": 55.5}, "geometry": {"type": "LineString", "coordinates": [[101.285035, 2.9121988], [101.285035, 2.9123605], [101.285089, 2.9125222]]}}, {"type": "Feature", "properties": {"len_m": 85.8}, "geometry": {"type": "LineString", "coordinates": [[101.2851969, 2.91263], [101.285089, 2.9127917], [101.2849271, 2.9128995], [101.2847652, 2.9130073]]}}, {"type": "Feature", "properties": {"len_m": 72.4}, "geometry": {"type": "LineString", "coordinates": [[101.2847112, 2.9131151], [101.2844953, 2.9131151], [101.2843334, 2.9132229]]}}, {"type": "Feature", "properties": {"len_m": 164.3}, "geometry": {"type": "LineString", "coordinates": [[101.2847112, 2.9131151], [101.2848731, 2.9132768], [101.2849811, 2.9134385], [101.285143, 2.9136002], [101.2852509, 2.9137619], [101.2853049, 2.9139236], [101.2853588, 2.9140853], [101.2854128, 2.9143009]]}}, {"type": "Feature", "properties": {"len_m": 100.3}, "geometry": {"type": "LineString", "coordinates": [[101.2841715, 2.9133846], [101.2839556, 2.9135463], [101.2837937, 2.9135463], [101.2836318, 2.9136002], [101.2834159, 2.9137619]]}}, {"type": "Feature", "properties": {"len_m": 171.8}, "geometry": {"type": "LineString", "coordinates": [[101.2841715, 2.9133846], [101.2843874, 2.9136002], [101.2844953, 2.9137619], [101.2846033, 2.9139236], [101.2846572, 2.9140853], [101.2847652, 2.914247], [101.2848731, 2.9144087], [101.285035, 2.9145704]]}}, {"type": "Feature", "properties": {"len_m": 215.2}, "geometry": {"type": "LineString", "coordinates": [[101.2856287, 2.9134924], [101.2857366, 2.9136541], [101.2857906, 2.9138158], [101.2858985, 2.9139775], [101.2860065, 2.9141392], [101.2860604, 2.9143009], [101.2861684, 2.9144626], [101.2862763, 2.9146243], [101.2863303, 2.914786], [101.2864922, 2.9149477]]}}, {"type": "Feature", "properties": {"len_m": 333.1}, "geometry": {"type": "LineString", "coordinates": [[101.2834159, 2.9137619], [101.2834699, 2.9139775], [101.2834699, 2.9141392], [101.2835239, 2.9143009], [101.2835779, 2.9144626], [101.2835779, 2.9146243], [101.2836318, 2.914786], [101.2837398, 2.9149477], [101.2837937, 2.9151094], [101.2839017, 2.9152711], [101.2840096, 2.9154328], [101.2840636, 2.9155945], [101.2841715, 2.9157562], [101.2843334, 2.9159178], [101.2844953, 2.9160256], [101.2847112, 2.9161334]]}}, {"type": "Feature", "properties": {"len_m": 68.9}, "geometry": {"type": "LineString", "coordinates": [[101.2876255, 2.9138158], [101.2876795, 2.9139775], [101.2877335, 2.9141392], [101.2878954, 2.9143009]]}}, {"type": "Feature", "properties": {"len_m": 60.4}, "geometry": {"type": "LineString", "coordinates": [[101.2883811, 2.9141392], [101.2881652, 2.9141392], [101.2880033, 2.914247]]}}, {"type": "Feature", "properties": {"len_m": 198.2}, "geometry": {"type": "LineString", "coordinates": [[101.2883811, 2.9141392], [101.288489, 2.9143548], [101.288597, 2.9145165], [101.2887049, 2.9146782], [101.2888129, 2.9148399], [101.2888668, 2.9150016], [101.2889748, 2.9151633], [101.2890827, 2.915325], [101.2891906, 2.9154867]]}}, {"type": "Feature", "properties": {"len_m": 53.4}, "geometry": {"type": "LineString", "coordinates": [[101.2854128, 2.9143009], [101.2852509, 2.9144087], [101.285035, 2.9145704]]}}, {"type": "Feature", "properties": {"len_m": 147.3}, "geometry": {"type": "LineString", "coordinates": [[101.2854128, 2.9143009], [101.2856287, 2.9144087], [101.2857366, 2.9145704], [101.2857906, 2.9147321], [101.2858446, 2.9148938], [101.2858985, 2.9150555], [101.2860604, 2.9152172]]}}, {"type": "Feature", "properties": {"len_m": 183.5}, "geometry": {"type": "LineString", "coordinates": [[101.2878954, 2.9143009], [101.2876255, 2.9144626], [101.2874636, 2.9145165], [101.2873017, 2.9146243], [101.2871398, 2.9146782], [101.2869779, 2.914786], [101.286816, 2.9148938], [101.2866541, 2.9149477]]}}, {"type": "Feature", "properties": {"len_m": 152.2}, "geometry": {"type": "LineString", "coordinates": [[101.285035, 2.9145704], [101.285089, 2.914786], [101.285143, 2.9149477], [101.2851969, 2.9151094], [101.2852509, 2.9152711], [101.2853049, 2.9154328], [101.2854128, 2.9155945]]}}, {"type": "Feature", "properties": {"len_m": 59.3}, "geometry": {"type": "LineString", "coordinates": [[101.2865462, 2.9150555], [101.2863842, 2.9151633], [101.2862223, 2.9152172]]}}, {"type": "Feature", "properties": {"len_m": 186.2}, "geometry": {"type": "LineString", "coordinates": [[101.2865462, 2.9150555], [101.2867081, 2.9152711], [101.286762, 2.9154328], [101.28687, 2.9155945], [101.2869779, 2.9157562], [101.2870319, 2.9159178], [101.2871938, 2.9160795], [101.2872478, 2.9162412], [101.2873557, 2.9164029]]}}, {"type": "Feature", "properties": {"len_m": 24.0}, "geometry": {"type": "LineString", "coordinates": [[101.2861144, 2.9152711], [101.2861144, 2.9154867]]}}, {"type": "Feature", "properties": {"len_m": 68.9}, "geometry": {"type": "LineString", "coordinates": [[101.2861144, 2.9154867], [101.2859525, 2.9155406], [101.2857906, 2.9155406], [101.2855747, 2.9157023]]}}, {"type": "Feature", "properties": {"len_m": 312.6}, "geometry": {"type": "LineString", "coordinates": [[101.2861144, 2.9154867], [101.2862763, 2.9156484], [101.2863842, 2.9158101], [101.2864922, 2.9159717], [101.2866001, 2.9161334], [101.2866541, 2.9162951], [101.286762, 2.9164568], [101.2869239, 2.9166185], [101.2870319, 2.9167802], [101.2870858, 2.9169419], [101.2871398, 2.9171036], [101.2871938, 2.9172653], [101.2873017, 2.917427], [101.2874097, 2.9175887]]}}, {"type": "Feature", "properties": {"len_m": 114.8}, "geometry": {"type": "LineString", "coordinates": [[101.2855747, 2.9157023], [101.2853588, 2.9158639], [101.2851969, 2.9158639], [101.285035, 2.9158639], [101.2848731, 2.9159717], [101.2847112, 2.9161334]]}}, {"type": "Feature", "properties": {"len_m": 328.6}, "geometry": {"type": "LineString", "coordinates": [[101.2855747, 2.9157023], [101.2857906, 2.9159178], [101.2858446, 2.9160795], [101.2858985, 2.9162412], [101.2860065, 2.9164029], [101.2860604, 2.9165646], [101.2861684, 2.9167263], [101.2862223, 2.916888], [101.2863303, 2.9170497], [101.2864382, 2.9172114], [101.2864922, 2.9173731], [101.2866001, 2.9175348], [101.2866001, 2.9176965], [101.2866541, 2.9178582], [101.286816, 2.9180199]]}}, {"type": "Feature", "properties": {"len_m": 341.6}, "geometry": {"type": "LineString", "coordinates": [[101.2847112, 2.9161334], [101.2847652, 2.916349], [101.2848191, 2.9165107], [101.2848731, 2.9166724], [101.2848731, 2.9168341], [101.2849271, 2.9169958], [101.2849811, 2.9171575], [101.285035, 2.9173192], [101.285143, 2.9174809], [101.2851969, 2.9176426], [101.2853049, 2.9178043], [101.2854128, 2.917966], [101.2855207, 2.9181277], [101.2856827, 2.9182894], [101.2858446, 2.9183972], [101.2860065, 2.9184511]]}}, {"type": "Feature", "properties": {"len_m": 118.4}, "geometry": {"type": "LineString", "coordinates": [[101.2878954, 2.9162951], [101.2880033, 2.9164568], [101.2881113, 2.9166185], [101.2881652, 2.9167802], [101.2881652, 2.9169419], [101.2883811, 2.9171575]]}}, {"type": "Feature", "properties": {"len_m": 134.3}, "geometry": {"type": "LineString", "coordinates": [[101.2893526, 2.9165646], [101.2891906, 2.9166724], [101.2890287, 2.9167802], [101.2888668, 2.916888], [101.2887049, 2.9169958], [101.288543, 2.9170497]]}}, {"type": "Feature", "properties": {"len_m": 100.3}, "geometry": {"type": "LineString", "coordinates": [[101.2875176, 2.9167263], [101.2875716, 2.916888], [101.2876795, 2.9170497], [101.2877335, 2.9172114], [101.2878414, 2.9173731]]}}, {"type": "Feature", "properties": {"len_m": 59.4}, "geometry": {"type": "LineString", "coordinates": [[101.2883811, 2.9171575], [101.2881652, 2.9173192], [101.2879494, 2.917427]]}}, {"type": "Feature", "properties": {"len_m": 85.4}, "geometry": {"type": "LineString", "coordinates": [[101.2883811, 2.9171575], [101.288489, 2.917427], [101.288651, 2.9175887], [101.2887049, 2.9177504]]}}, {"type": "Feature", "properties": {"len_m": 71.1}, "geometry": {"type": "LineString", "coordinates": [[101.2879494, 2.917427], [101.2877335, 2.9175348], [101.2875716, 2.9175887]]}}, {"type": "Feature", "properties": {"len_m": 171.7}, "geometry": {"type": "LineString", "coordinates": [[101.2879494, 2.917427], [101.2881113, 2.9176426], [101.2881113, 2.9178043], [101.2882732, 2.917966], [101.2883271, 2.9181277], [101.2883811, 2.9182894], [101.288543, 2.9184511], [101.288543, 2.9186128]]}}, {"type": "Feature", "properties": {"len_m": 83.4}, "geometry": {"type": "LineString", "coordinates": [[101.2874636, 2.9177504], [101.2872478, 2.9178582], [101.2870858, 2.9179121], [101.28687, 2.9181277]]}}, {"type": "Feature", "properties": {"len_m": 153.7}, "geometry": {"type": "LineString", "coordinates": [[101.2874636, 2.9177504], [101.2876795, 2.917966], [101.2877874, 2.9181277], [101.2878954, 2.9182894], [101.2879494, 2.9184511], [101.2880573, 2.9186128], [101.2882732, 2.9187745]]}}, {"type": "Feature", "properties": {"len_m": 100.3}, "geometry": {"type": "LineString", "coordinates": [[101.28687, 2.9181277], [101.2866541, 2.9182355], [101.2864922, 2.9182355], [101.2863303, 2.9182894], [101.2861684, 2.9184511]]}}, {"type": "Feature", "properties": {"len_m": 311.6}, "geometry": {"type": "LineString", "coordinates": [[101.28687, 2.9181277], [101.2870858, 2.9182894], [101.2871398, 2.9184511], [101.2872478, 2.9186128], [101.2873557, 2.9187745], [101.2874097, 2.9189362], [101.2875176, 2.9190979], [101.2875716, 2.9192596], [101.2876795, 2.9194213], [101.2877335, 2.919583], [101.2878414, 2.9197447], [101.2878954, 2.9199063], [101.2879494, 2.920068], [101.2880033, 2.9202297], [101.2881113, 2.9203914]]}}, {"type": "Feature", "properties": {"len_m": 190.8}, "geometry": {"type": "LineString", "coordinates": [[101.2888668, 2.9180738], [101.2889748, 2.9182355], [101.2890287, 2.9183972], [101.2891367, 2.9185589], [101.2892446, 2.9187206], [101.2892986, 2.9188823], [101.2894065, 2.919044], [101.2895145, 2.9192057], [101.2895684, 2.9193674]]}}, {"type": "Feature", "properties": {"len_m": 336.6}, "geometry": {"type": "LineString", "coordinates": [[101.2861144, 2.918505], [101.2861684, 2.9187206], [101.2861684, 2.9188823], [101.2862223, 2.919044], [101.2862223, 2.9192057], [101.2862763, 2.9193674], [101.2863303, 2.9195291], [101.2863842, 2.9196908], [101.2864922, 2.9198525], [101.2865462, 2.9200141], [101.2866541, 2.9201758], [101.286762, 2.9203375], [101.286816, 2.9204992], [101.2869779, 2.9206609], [101.2871398, 2.9207687], [101.2873017, 2.9208226]]}}, {"type": "Feature", "properties": {"len_m": 38.5}, "geometry": {"type": "LineString", "coordinates": [[101.288597, 2.9187206], [101.2883811, 2.9187206]]}}, {"type": "Feature", "properties": {"len_m": 144.8}, "geometry": {"type": "LineString", "coordinates": [[101.288597, 2.9187206], [101.2887589, 2.9188823], [101.2888129, 2.919044], [101.2889208, 2.9192057], [101.2889748, 2.9193674], [101.2890287, 2.9195291], [101.2890827, 2.9196908]]}}, {"type": "Feature", "properties": {"len_m": 144.9}, "geometry": {"type": "LineString", "coordinates": [[101.2882732, 2.9187745], [101.2882732, 2.9189901], [101.2883811, 2.9191518], [101.2884351, 2.9193135], [101.288543, 2.9194752], [101.288651, 2.9196369], [101.2887589, 2.9197986]]}}, {"type": "Feature", "properties": {"len_m": 125.4}, "geometry": {"type": "LineString", "coordinates": [[101.2905938, 2.9190979], [101.2904319, 2.9191518], [101.29027, 2.9192596], [101.2901081, 2.9193135], [101.2899462, 2.9193674], [101.2897843, 2.9194213]]}}, {"type": "Feature", "properties": {"len_m": 63.9}, "geometry": {"type": "LineString", "coordinates": [[101.2896224, 2.9194752], [101.2895145, 2.9196369], [101.2893526, 2.9196908]]}}, {"type": "Feature", "properties": {"len_m": 31.4}, "geometry": {"type": "LineString", "coordinates": [[101.2890827, 2.9197986], [101.2888129, 2.9198525]]}}, {"type": "Feature", "properties": {"len_m": 33.9}, "geometry": {"type": "LineString", "coordinates": [[101.2892446, 2.9197986], [101.2894065, 2.9199602]]}}, {"type": "Feature", "properties": {"len_m": 36.0}, "geometry": {"type": "LineString", "coordinates": [[101.2888129, 2.9198525], [101.2888129, 2.920068]]}}, {"type": "Feature", "properties": {"len_m": 62.9}, "geometry": {"type": "LineString", "coordinates": [[101.2888129, 2.9201758], [101.288597, 2.9202297], [101.2884351, 2.9202836]]}}, {"type": "Feature", "properties": {"len_m": 200.7}, "geometry": {"type": "LineString", "coordinates": [[101.2888129, 2.9201758], [101.2890287, 2.9203375], [101.2890827, 2.9204992], [101.2891367, 2.9206609], [101.2892446, 2.9208226], [101.2893526, 2.9209843], [101.2894605, 2.921146], [101.2895684, 2.9213077], [101.2896224, 2.9214694]]}}, {"type": "Feature", "properties": {"len_m": 24.0}, "geometry": {"type": "LineString", "coordinates": [[101.2881113, 2.9203914], [101.2883271, 2.9203914]]}}, {"type": "Feature", "properties": {"len_m": 100.4}, "geometry": {"type": "LineString", "coordinates": [[101.2881113, 2.9203914], [101.2879494, 2.9205531], [101.2877874, 2.920607], [101.2876255, 2.9206609], [101.2874636, 2.9208226]]}}, {"type": "Feature", "properties": {"len_m": 209.1}, "geometry": {"type": "LineString", "coordinates": [[101.2883271, 2.9203914], [101.288489, 2.920607], [101.288543, 2.9207687], [101.288651, 2.9209304], [101.2887049, 2.9210921], [101.2888129, 2.9212538], [101.2888668, 2.9214155], [101.2889748, 2.9215772], [101.2889748, 2.9217389], [101.2891906, 2.9219006]]}}, {"type": "Feature", "properties": {"len_m": 235.2}, "geometry": {"type": "LineString", "coordinates": [[101.2874097, 2.9208765], [101.2874097, 2.9210921], [101.2874636, 2.9212538], [101.2875176, 2.9214155], [101.2875176, 2.9215772], [101.2875716, 2.9217389], [101.2876255, 2.9219006], [101.2877335, 2.9220623], [101.2878414, 2.922224], [101.2879494, 2.9223857], [101.2881113, 2.9224935]]}}, {"type": "Feature", "properties": {"len_m": 61.8}, "geometry": {"type": "LineString", "coordinates": [[101.2905938, 2.9210382], [101.2904319, 2.921146], [101.29027, 2.9213077]]}}, {"type": "Feature", "properties": {"len_m": 60.4}, "geometry": {"type": "LineString", "coordinates": [[101.2902161, 2.9214155], [101.2900002, 2.9214694], [101.2898383, 2.9215233]]}}, {"type": "Feature", "properties": {"len_m": 66.4}, "geometry": {"type": "LineString", "coordinates": [[101.2902161, 2.9214155], [101.290324, 2.9215772], [101.2904319, 2.9217389], [101.2904859, 2.9219006]]}}, {"type": "Feature", "properties": {"len_m": 76.0}, "geometry": {"type": "LineString", "coordinates": [[101.2897303, 2.9215772], [101.2895145, 2.9217389], [101.2893526, 2.9217928]]}}, {"type": "Feature", "properties": {"len_m": 197.8}, "geometry": {"type": "LineString", "coordinates": [[101.2897303, 2.9215772], [101.2898383, 2.9218467], [101.2899462, 2.9220084], [101.2900542, 2.9221701], [101.2901081, 2.9223318], [101.2902161, 2.9224935], [101.290324, 2.9226552], [101.290378, 2.9228169], [101.2904859, 2.9229786]]}}, {"type": "Feature", "properties": {"len_m": 131.8}, "geometry": {"type": "LineString", "coordinates": [[101.2891906, 2.9219006], [101.2889748, 2.9221162], [101.2888129, 2.9221162], [101.288651, 2.922224], [101.288489, 2.9223318], [101.2883271, 2.9224935]]}}, {"type": "Feature", "properties": {"len_m": 198.2}, "geometry": {"type": "LineString", "coordinates": [[101.2891906, 2.9219006], [101.2893526, 2.9221162], [101.2894065, 2.9222779], [101.2894605, 2.9224396], [101.2895684, 2.9226013], [101.2896224, 2.922763], [101.2897303, 2.9229247], [101.2898383, 2.9230864], [101.2898922, 2.9232481]]}}, {"type": "Feature", "properties": {"len_m": 2808.3}, "geometry": {"type": "LineString", "coordinates": [[101.2923209, 2.9219545], [101.2923748, 2.9221162], [101.2925367, 2.9222779], [101.2926447, 2.9224396], [101.2926986, 2.9226013], [101.2928066, 2.922763], [101.2929145, 2.9229247], [101.2929685, 2.9230864], [101.2930764, 2.9232481], [101.2931844, 2.9234098], [101.2932923, 2.9235715], [101.2933463, 2.9237332], [101.2934542, 2.9238949], [101.2935621, 2.9240565], [101.2936161, 2.9242182], [101.2937241, 2.9243799], [101.293832, 2.9245416], [101.2939399, 2.9247033], [101.2940479, 2.924865], [101.2941018, 2.9250267], [101.2942098, 2.9251884], [101.2943177, 2.9253501], [101.2944257, 2.9255118], [101.2944796, 2.9256735], [101.2945876, 2.9258352], [101.2946415, 2.9259969], [101.2947495, 2.9261586], [101.2948574, 2.9263203], [101.2949653, 2.926482], [101.2950193, 2.9266437], [101.2951273, 2.9268054], [101.2952352, 2.9269671], [101.2953431, 2.9271288], [101.2953971, 2.9272905], [101.295505, 2.9274522], [101.295613, 2.9276139], [101.2956669, 2.9277756], [101.2957749, 2.9279373], [101.2958828, 2.9280989], [101.2959368, 2.9282606], [101.2960447, 2.9284223], [101.2961527, 2.928584], [101.2962606, 2.9287457], [101.2963146, 2.9289074], [101.2964225, 2.9290691], [101.2965305, 2.9292308], [101.2966384, 2.9293925], [101.2966924, 2.9295542], [101.2968003, 2.9297159], [101.2969082, 2.9298776], [101.2969622, 2.9300393], [101.2970701, 2.930201], [101.2971781, 2.9303627], [101.297286, 2.9305244], [101.29734, 2.9306861], [101.2974479, 2.9308478], [101.2975559, 2.9310095], [101.2976638, 2.9311712], [101.2977178, 2.9313329], [101.2978257, 2.9314946], [101.2979336, 2.9316563], [101.2979876, 2.931818], [101.2980956, 2.9319797], [101.2982035, 2.9321413], [101.2983114, 2.932303], [101.2983654, 2.9324647], [101.2984733, 2.9326264], [101.2985813, 2.9327881], [101.2986352, 2.9329498], [101.2987432, 2.9331115], [101.2988511, 2.9332732], [101.2989591, 2.9334349], [101.299013, 2.9335966], [101.299121, 2.9337583], [101.2992289, 2.93392], [101.2992829, 2.9340817], [101.2993908, 2.9342434], [101.2994448, 2.9344051], [101.2995527, 2.9345668], [101.2996607, 2.9347285], [101.2997686, 2.9348902], [101.2999305, 2.9350519], [101.2999845, 2.9352136], [101.3000384, 2.9353753], [101.3001464, 2.935537], [101.3002543, 2.9356987], [101.3003623, 2.9358604], [101.3004162, 2.9360221], [101.3005242, 2.9361837], [101.3006321, 2.9363454], [101.3006861, 2.9365071], [101.300794, 2.9366688], [101.300902, 2.9368305], [101.3010099, 2.9369922], [101.3010639, 2.9371539], [101.3011718, 2.9373156], [101.3012797, 2.9374773], [101.3013337, 2.937639], [101.3014416, 2.9378007], [101.3014956, 2.9379624], [101.3016575, 2.9381241], [101.3017115, 2.9382858], [101.3018194, 2.9384475], [101.3019274, 2.9386092], [101.3019813, 2.9387709], [101.3020893, 2.9389326], [101.3021972, 2.9390943], [101.3022512, 2.939256], [101.3023591, 2.9394177], [101.3024671, 2.9395794], [101.302575, 2.9397411], [101.302629, 2.9399028], [101.3027369, 2.9400645], [101.3028448, 2.9402261], [101.3028988, 2.9403878], [101.3030067, 2.9405495], [101.3030607, 2.9407112], [101.3031687, 2.9408729], [101.3032766, 2.9410346], [101.3033306, 2.9411963], [101.3034385, 2.941358], [101.3035464, 2.9415197], [101.3036544, 2.9416814], [101.3037083, 2.9418431], [101.3038163, 2.9420048], [101.3038703, 2.9421665], [101.3039242, 2.9423821]]}}, {"type": "Feature", "properties": {"len_m": 209.8}, "geometry": {"type": "LineString", "coordinates": [[101.2882732, 2.9225474], [101.2882732, 2.922763], [101.2883271, 2.9229247], [101.2883271, 2.9230864], [101.2884351, 2.9232481], [101.288489, 2.9234098], [101.288597, 2.9235715], [101.288651, 2.9237332], [101.2888129, 2.9238949], [101.2889748, 2.9240026]]}}, {"type": "Feature", "properties": {"len_m": 42.4}, "geometry": {"type": "LineString", "coordinates": [[101.2908097, 2.9226013], [101.2909177, 2.922763]]}}, {"type": "Feature", "properties": {"len_m": 65.4}, "geometry": {"type": "LineString", "coordinates": [[101.2915113, 2.9226013], [101.2913494, 2.9226552], [101.2911875, 2.922763]]}}, {"type": "Feature", "properties": {"len_m": 60.4}, "geometry": {"type": "LineString", "coordinates": [[101.2910256, 2.9228708], [101.2908097, 2.9229247], [101.2906478, 2.9229786]]}}, {"type": "Feature", "properties": {"len_m": 39.9}, "geometry": {"type": "LineString", "coordinates": [[101.2910256, 2.9228708], [101.2911875, 2.9230864]]}}, {"type": "Feature", "properties": {"len_m": 77.4}, "geometry": {"type": "LineString", "coordinates": [[101.2905399, 2.9230325], [101.2904319, 2.9231942], [101.29027, 2.9231942], [101.2901081, 2.923302]]}}, {"type": "Feature", "properties": {"len_m": 119.7}, "geometry": {"type": "LineString", "coordinates": [[101.2900002, 2.9235715], [101.2897843, 2.9236793], [101.2896224, 2.9237332], [101.2894605, 2.9237871], [101.2892986, 2.923841], [101.2890827, 2.9240026]]}}, {"type": "Feature", "properties": {"len_m": 203.1}, "geometry": {"type": "LineString", "coordinates": [[101.2900002, 2.9235715], [101.2901621, 2.9237332], [101.29027, 2.9238949], [101.290324, 2.9240565], [101.2904319, 2.9242182], [101.2905399, 2.9243799], [101.2906478, 2.9245416], [101.2907018, 2.9247033], [101.2907558, 2.924865]]}}, {"type": "Feature", "properties": {"len_m": 230.3}, "geometry": {"type": "LineString", "coordinates": [[101.2890827, 2.9240026], [101.2891367, 2.9242182], [101.2891906, 2.9243799], [101.2892446, 2.9245416], [101.2892446, 2.9247033], [101.2892986, 2.924865], [101.2894065, 2.9250267], [101.2894605, 2.9251884], [101.2895684, 2.9253501], [101.2896764, 2.9255118], [101.2898383, 2.9256196]]}}, {"type": "Feature", "properties": {"len_m": 65.4}, "geometry": {"type": "LineString", "coordinates": [[101.2923209, 2.9240565], [101.2922129, 2.9242182], [101.292051, 2.924326]]}}, {"type": "Feature", "properties": {"len_m": 31.5}, "geometry": {"type": "LineString", "coordinates": [[101.2913494, 2.924326], [101.2914574, 2.9244877]]}}, {"type": "Feature", "properties": {"len_m": 49.5}, "geometry": {"type": "LineString", "coordinates": [[101.2918891, 2.9243799], [101.2916732, 2.9244877]]}}, {"type": "Feature", "properties": {"len_m": 30.4}, "geometry": {"type": "LineString", "coordinates": [[101.2918891, 2.9243799], [101.292051, 2.9245955]]}}, {"type": "Feature", "properties": {"len_m": 77.4}, "geometry": {"type": "LineString", "coordinates": [[101.2914574, 2.9247572], [101.2912415, 2.9248111], [101.2910796, 2.9248111], [101.2908637, 2.9250267]]}}, {"type": "Feature", "properties": {"len_m": 129.3}, "geometry": {"type": "LineString", "coordinates": [[101.2914574, 2.9247572], [101.2916193, 2.9249189], [101.2917272, 2.9250806], [101.2918351, 2.9252423], [101.2919431, 2.925404], [101.291997, 2.9255657]]}}, {"type": "Feature", "properties": {"len_m": 127.2}, "geometry": {"type": "LineString", "coordinates": [[101.2908637, 2.9250267], [101.2906478, 2.9251884], [101.2904859, 2.9252423], [101.290324, 2.9253501], [101.2901621, 2.9254579], [101.2899462, 2.9256196]]}}, {"type": "Feature", "properties": {"len_m": 215.1}, "geometry": {"type": "LineString", "coordinates": [[101.2908637, 2.9250267], [101.2910256, 2.9251884], [101.2910796, 2.9253501], [101.2912415, 2.9255118], [101.2913494, 2.9256735], [101.2914034, 2.9258352], [101.2914574, 2.9259969], [101.2915113, 2.9261586], [101.2915653, 2.9263203], [101.2916732, 2.926482]]}}, {"type": "Feature", "properties": {"len_m": 228.2}, "geometry": {"type": "LineString", "coordinates": [[101.2899462, 2.9256196], [101.2899462, 2.9258352], [101.2900002, 2.9259969], [101.2900542, 2.9261586], [101.2901081, 2.9263203], [101.2902161, 2.926482], [101.29027, 2.9266437], [101.290378, 2.9268054], [101.2905399, 2.9269671], [101.2907018, 2.9271288], [101.2909177, 2.9271827]]}}, {"type": "Feature", "properties": {"len_m": 37.5}, "geometry": {"type": "LineString", "coordinates": [[101.2926447, 2.9256735], [101.2926986, 2.9258352]]}}, {"type": "Feature", "properties": {"len_m": 63.9}, "geometry": {"type": "LineString", "coordinates": [[101.2932923, 2.9257274], [101.2931304, 2.9257813], [101.2929685, 2.9258352]]}}, {"type": "Feature", "properties": {"len_m": 63.9}, "geometry": {"type": "LineString", "coordinates": [[101.2928066, 2.925943], [101.2925907, 2.9260508], [101.2924288, 2.9261586]]}}, {"type": "Feature", "properties": {"len_m": 62.4}, "geometry": {"type": "LineString", "coordinates": [[101.2928066, 2.925943], [101.2929145, 2.9262125], [101.2930225, 2.9263742]]}}, {"type": "Feature", "properties": {"len_m": 83.4}, "geometry": {"type": "LineString", "coordinates": [[101.2924288, 2.9262664], [101.2922129, 2.9263203], [101.292051, 2.9263203], [101.2918891, 2.926482]]}}, {"type": "Feature", "properties": {"len_m": 112.4}, "geometry": {"type": "LineString", "coordinates": [[101.2924288, 2.9262664], [101.2925907, 2.9264281], [101.2926986, 2.9265898], [101.2927526, 2.9267515], [101.2928605, 2.9269132], [101.2930225, 2.9269671]]}}, {"type": "Feature", "properties": {"len_m": 125.8}, "geometry": {"type": "LineString", "coordinates": [[101.2917812, 2.9265359], [101.2915653, 2.9267515], [101.2914034, 2.9268054], [101.2912415, 2.9269132], [101.2910796, 2.927021], [101.2909177, 2.9271827]]}}, {"type": "Feature", "properties": {"len_m": 215.2}, "geometry": {"type": "LineString", "coordinates": [[101.2917812, 2.9265359], [101.2919431, 2.9267515], [101.291997, 2.9269132], [101.292105, 2.9270749], [101.292105, 2.9272366], [101.2922669, 2.9273983], [101.2923748, 2.92756], [101.2924288, 2.9277217], [101.2925367, 2.9278834], [101.2926986, 2.9280989]]}}, {"type": "Feature", "properties": {"len_m": 123.3}, "geometry": {"type": "LineString", "coordinates": [[101.2931844, 2.9266437], [101.2933463, 2.9268054], [101.2934002, 2.9269671], [101.2935082, 2.9271288], [101.2935082, 2.9272905], [101.2936161, 2.9274522]]}}, {"type": "Feature", "properties": {"len_m": 214.8}, "geometry": {"type": "LineString", "coordinates": [[101.2909177, 2.9271827], [101.2909716, 2.9273983], [101.2909716, 2.92756], [101.2910256, 2.9277217], [101.2911335, 2.9278834], [101.2912415, 2.928045], [101.2912954, 2.9282067], [101.2914034, 2.9283684], [101.2915113, 2.9285301], [101.2916732, 2.9286379]]}}, {"type": "Feature", "properties": {"len_m": 77.4}, "geometry": {"type": "LineString", "coordinates": [[101.2942098, 2.9271827], [101.2940479, 2.9272905], [101.293886, 2.9273983], [101.2936701, 2.92756]]}}, {"type": "Feature", "properties": {"len_m": 54.4}, "geometry": {"type": "LineString", "coordinates": [[101.2930225, 2.9272905], [101.2931304, 2.9274522], [101.2932383, 2.9276139]]}}, {"type": "Feature", "properties": {"len_m": 45.9}, "geometry": {"type": "LineString", "coordinates": [[101.2936701, 2.92756], [101.2934542, 2.9276139], [101.2932923, 2.9276678]]}}, {"type": "Feature", "properties": {"len_m": 217.2}, "geometry": {"type": "LineString", "coordinates": [[101.2936701, 2.92756], [101.293832, 2.9277217], [101.293886, 2.9278834], [101.2939399, 2.928045], [101.2940479, 2.9282067], [101.2941558, 2.9283684], [101.2942637, 2.9285301], [101.2943717, 2.9286918], [101.2944796, 2.9288535], [101.2945876, 2.929123]]}}, {"type": "Feature", "properties": {"len_m": 72.4}, "geometry": {"type": "LineString", "coordinates": [[101.2932383, 2.9278295], [101.2930225, 2.9278834], [101.2928605, 2.9279373]]}}, {"type": "Feature", "properties": {"len_m": 111.3}, "geometry": {"type": "LineString", "coordinates": [[101.2932383, 2.9278295], [101.2934542, 2.9279912], [101.2935082, 2.9281528], [101.2936161, 2.9283145], [101.2937241, 2.9284762]]}}, {"type": "Feature", "properties": {"len_m": 128.3}, "geometry": {"type": "LineString", "coordinates": [[101.2926986, 2.9280989], [101.2924828, 2.9283145], [101.2923209, 2.9283684], [101.2921589, 2.9284762], [101.291997, 2.9285301], [101.2917812, 2.9286918]]}}, {"type": "Feature", "properties": {"len_m": 217.6}, "geometry": {"type": "LineString", "coordinates": [[101.2926986, 2.9280989], [101.2928605, 2.9283145], [101.2929145, 2.9284762], [101.2930225, 2.9286379], [101.2930764, 2.9287996], [101.2931844, 2.9289613], [101.2932923, 2.929123], [101.2933463, 2.9292847], [101.2934002, 2.9294464], [101.2935082, 2.9296081]]}}, {"type": "Feature", "properties": {"len_m": 223.2}, "geometry": {"type": "LineString", "coordinates": [[101.2917812, 2.9286918], [101.2918351, 2.9289074], [101.2918891, 2.9290691], [101.2918891, 2.9292308], [101.2919431, 2.9293925], [101.292051, 2.9295542], [101.292105, 2.9297159], [101.2922129, 2.9298776], [101.2923209, 2.9300393], [101.2924288, 2.9301471], [101.2926447, 2.9302549]]}}, {"type": "Feature", "properties": {"len_m": 62.6}, "geometry": {"type": "LineString", "coordinates": [[101.2950193, 2.9288535], [101.2947495, 2.9289074]]}}, {"type": "Feature", "properties": {"len_m": 48.4}, "geometry": {"type": "LineString", "coordinates": [[101.2945876, 2.929123], [101.2943717, 2.9292308], [101.2942098, 2.9292847]]}}, {"type": "Feature", "properties": {"len_m": 23.0}, "geometry": {"type": "LineString", "coordinates": [[101.2941018, 2.929123], [101.2942098, 2.9292847]]}}, {"type": "Feature", "properties": {"len_m": 84.4}, "geometry": {"type": "LineString", "coordinates": [[101.2942098, 2.9294464], [101.2939939, 2.9294464], [101.293832, 2.9295003], [101.2936701, 2.9296081]]}}, {"type": "Feature", "properties": {"len_m": 198.2}, "geometry": {"type": "LineString", "coordinates": [[101.2942098, 2.9294464], [101.2943717, 2.9296081], [101.2944257, 2.9297698], [101.2945336, 2.9299315], [101.2945876, 2.9300932], [101.2946955, 2.9302549], [101.2947495, 2.9304166], [101.2948574, 2.9305783], [101.2949114, 2.93074]]}}, {"type": "Feature", "properties": {"len_m": 125.8}, "geometry": {"type": "LineString", "coordinates": [[101.2935621, 2.9297159], [101.2933463, 2.9298776], [101.2931844, 2.9299315], [101.2930225, 2.9300393], [101.2928605, 2.9300932], [101.2926986, 2.930201]]}}, {"type": "Feature", "properties": {"len_m": 210.2}, "geometry": {"type": "LineString", "coordinates": [[101.2935621, 2.9297159], [101.2937241, 2.9298776], [101.293778, 2.9300393], [101.293886, 2.930201], [101.2939939, 2.9303627], [101.2940479, 2.9305244], [101.2941558, 2.9306861], [101.2942098, 2.9308478], [101.2942637, 2.9310095], [101.2944257, 2.9312251]]}}, {"type": "Feature", "properties": {"len_m": 45.9}, "geometry": {"type": "LineString", "coordinates": [[101.2956669, 2.9299854], [101.2957749, 2.9301471], [101.2958828, 2.9303088]]}}, {"type": "Feature", "properties": {"len_m": 55.5}, "geometry": {"type": "LineString", "coordinates": [[101.2952352, 2.930201], [101.2953431, 2.9303627], [101.2953971, 2.9305244]]}}, {"type": "Feature", "properties": {"len_m": 218.3}, "geometry": {"type": "LineString", "coordinates": [[101.2926447, 2.9302549], [101.2926447, 2.9304705], [101.2926986, 2.9306322], [101.2927526, 2.9307939], [101.2928066, 2.9309556], [101.2928605, 2.9311173], [101.2929685, 2.931279], [101.2930764, 2.9314407], [101.2931844, 2.9316024], [101.2933463, 2.9317102]]}}, {"type": "Feature", "properties": {"len_m": 70.3}, "geometry": {"type": "LineString", "coordinates": [[101.2958828, 2.9303088], [101.2957209, 2.9304705], [101.295559, 2.9305783]]}}, {"type": "Feature", "properties": {"len_m": 56.9}, "geometry": {"type": "LineString", "coordinates": [[101.2953971, 2.9306322], [101.2952352, 2.93074], [101.2950193, 2.9309017]]}}, {"type": "Feature", "properties": {"len_m": 79.8}, "geometry": {"type": "LineString", "coordinates": [[101.2950193, 2.9309017], [101.2948034, 2.9310095], [101.2946415, 2.9310634], [101.2944257, 2.9312251]]}}, {"type": "Feature", "properties": {"len_m": 50.9}, "geometry": {"type": "LineString", "coordinates": [[101.2950193, 2.9309017], [101.2952352, 2.9311173]]}}, {"type": "Feature", "properties": {"len_m": 124.7}, "geometry": {"type": "LineString", "coordinates": [[101.2944257, 2.9312251], [101.2942098, 2.9313868], [101.2940479, 2.9314946], [101.293886, 2.9315485], [101.2937241, 2.9316024], [101.2935082, 2.9317641]]}}, {"type": "Feature", "properties": {"len_m": 217.6}, "geometry": {"type": "LineString", "coordinates": [[101.2944257, 2.9312251], [101.2946415, 2.9313868], [101.2946955, 2.9315485], [101.2946955, 2.9317102], [101.2948034, 2.9318719], [101.2949114, 2.9320336], [101.2950193, 2.9321952], [101.2951273, 2.9323569], [101.2951812, 2.9325186], [101.2952892, 2.9326803]]}}, {"type": "Feature", "properties": {"len_m": 156.9}, "geometry": {"type": "LineString", "coordinates": [[101.2953431, 2.9312251], [101.2953431, 2.9313868], [101.2954511, 2.9315485], [101.295559, 2.9317102], [101.2956669, 2.9318719], [101.2956669, 2.9320336], [101.2957749, 2.9321952], [101.2958289, 2.9323569]]}}, {"type": "Feature", "properties": {"len_m": 231.7}, "geometry": {"type": "LineString", "coordinates": [[101.2935082, 2.9317641], [101.2935082, 2.9319797], [101.2935621, 2.9321413], [101.2936161, 2.932303], [101.2936701, 2.9324647], [101.293778, 2.9326264], [101.293832, 2.9327881], [101.2939399, 2.9329498], [101.2940479, 2.9331115], [101.2941558, 2.9332732], [101.2943177, 2.9333271]]}}, {"type": "Feature", "properties": {"len_m": 127.9}, "geometry": {"type": "LineString", "coordinates": [[101.2968003, 2.9319258], [101.2966924, 2.9320336], [101.2965305, 2.9320874], [101.2963685, 2.9321952], [101.2962066, 2.932303], [101.2960447, 2.9323569]]}}, {"type": "Feature", "properties": {"len_m": 70.3}, "geometry": {"type": "LineString", "coordinates": [[101.2958828, 2.9324108], [101.2957209, 2.9325725], [101.295559, 2.9326264]]}}, {"type": "Feature", "properties": {"len_m": 137.8}, "geometry": {"type": "LineString", "coordinates": [[101.2953971, 2.9327342], [101.2951812, 2.9329498], [101.2950193, 2.9330576], [101.2948574, 2.9331654], [101.2946955, 2.9331654], [101.2945336, 2.9332732]]}}, {"type": "Feature", "properties": {"len_m": 217.6}, "geometry": {"type": "LineString", "coordinates": [[101.2953971, 2.9327342], [101.295559, 2.9329498], [101.295613, 2.9331115], [101.2956669, 2.9332732], [101.2957209, 2.9334349], [101.2958289, 2.9335966], [101.2959368, 2.9337583], [101.2959908, 2.93392], [101.2960987, 2.9340817], [101.2962066, 2.9342434]]}}, {"type": "Feature", "properties": {"len_m": 102.4}, "geometry": {"type": "LineString", "coordinates": [[101.2971241, 2.9333271], [101.2971241, 2.9334888], [101.2971781, 2.9336505], [101.2971781, 2.9338122], [101.2970162, 2.9338661]]}}, {"type": "Feature", "properties": {"len_m": 219.7}, "geometry": {"type": "LineString", "coordinates": [[101.2944257, 2.933381], [101.2944257, 2.9335966], [101.2944796, 2.9337583], [101.2945336, 2.93392], [101.2946415, 2.9340817], [101.2946955, 2.9342434], [101.2948034, 2.9344051], [101.2948574, 2.9345668], [101.2950193, 2.9347285], [101.2951273, 2.9348902]]}}, {"type": "Feature", "properties": {"len_m": 54.4}, "geometry": {"type": "LineString", "coordinates": [[101.2965844, 2.9335427], [101.2967463, 2.9337044], [101.2968003, 2.9338661]]}}, {"type": "Feature", "properties": {"len_m": 92.9}, "geometry": {"type": "LineString", "coordinates": [[101.2968543, 2.93392], [101.2967463, 2.9340817], [101.2965844, 2.9341356], [101.2964225, 2.9341895]]}}, {"type": "Feature", "properties": {"len_m": 135.3}, "geometry": {"type": "LineString", "coordinates": [[101.2962606, 2.9343512], [101.2960447, 2.9345668], [101.2958828, 2.9346207], [101.2957209, 2.9347285], [101.295559, 2.9347824], [101.2953971, 2.9348363]]}}, {"type": "Feature", "properties": {"len_m": 212.7}, "geometry": {"type": "LineString", "coordinates": [[101.2962606, 2.9343512], [101.2964225, 2.9345668], [101.2964765, 2.9347285], [101.2965844, 2.9348902], [101.2966924, 2.9350519], [101.2968003, 2.9352136], [101.2968543, 2.9353753], [101.2969622, 2.935537], [101.2970162, 2.9356987], [101.2971781, 2.9358604]]}}, {"type": "Feature", "properties": {"len_m": 130.4}, "geometry": {"type": "LineString", "coordinates": [[101.299121, 2.9348363], [101.2989591, 2.9348902], [101.2987972, 2.934998], [101.2986352, 2.9350519], [101.2984733, 2.9351597], [101.2983114, 2.9352675]]}}, {"type": "Feature", "properties": {"len_m": 219.7}, "geometry": {"type": "LineString", "coordinates": [[101.2952892, 2.9349441], [101.2952892, 2.9351597], [101.2953431, 2.9353214], [101.2953971, 2.9354831], [101.295505, 2.9356448], [101.295559, 2.9358065], [101.2956669, 2.9359682], [101.2957749, 2.9361298], [101.2958828, 2.9362915], [101.2960447, 2.9363993]]}}, {"type": "Feature", "properties": {"len_m": 56.9}, "geometry": {"type": "LineString", "coordinates": [[101.2975559, 2.9352136], [101.2976098, 2.9353753], [101.2977178, 2.935537]]}}, {"type": "Feature", "properties": {"len_m": 62.9}, "geometry": {"type": "LineString", "coordinates": [[101.2982575, 2.9354292], [101.2980416, 2.9354831], [101.2978797, 2.935537]]}}, {"type": "Feature", "properties": {"len_m": 195.7}, "geometry": {"type": "LineString", "coordinates": [[101.2982575, 2.9354292], [101.2983654, 2.9355909], [101.2984733, 2.9357526], [101.2985813, 2.9359143], [101.2986352, 2.936076], [101.2987432, 2.9362376], [101.2987432, 2.9363993], [101.2988511, 2.936561], [101.2989051, 2.9367227]]}}, {"type": "Feature", "properties": {"len_m": 73.8}, "geometry": {"type": "LineString", "coordinates": [[101.2977717, 2.9356448], [101.2975559, 2.9356987], [101.297394, 2.9357526], [101.2971781, 2.9358604]]}}, {"type": "Feature", "properties": {"len_m": 204.2}, "geometry": {"type": "LineString", "coordinates": [[101.2977717, 2.9356448], [101.2979336, 2.9358604], [101.2979876, 2.9360221], [101.2980956, 2.9361837], [101.2982035, 2.9363454], [101.2982575, 2.9365071], [101.2983654, 2.9366688], [101.2984194, 2.9368305], [101.2984733, 2.9369922]]}}, {"type": "Feature", "properties": {"len_m": 135.3}, "geometry": {"type": "LineString", "coordinates": [[101.2971781, 2.9358604], [101.2969622, 2.936076], [101.2968003, 2.9361837], [101.2966384, 2.9362376], [101.2964765, 2.9362915], [101.2963146, 2.9363454]]}}, {"type": "Feature", "properties": {"len_m": 219.7}, "geometry": {"type": "LineString", "coordinates": [[101.2971781, 2.9358604], [101.29734, 2.936076], [101.297394, 2.9362376], [101.2974479, 2.9363993], [101.2975559, 2.936561], [101.2976638, 2.9367227], [101.2977717, 2.9368844], [101.2978797, 2.9370461], [101.2979336, 2.9372078], [101.2980956, 2.9374773]]}}, {"type": "Feature", "properties": {"len_m": 66.4}, "geometry": {"type": "LineString", "coordinates": [[101.2992289, 2.936076], [101.2993368, 2.9362376], [101.2994448, 2.9363993], [101.2994988, 2.936561]]}}, {"type": "Feature", "properties": {"len_m": 67.5}, "geometry": {"type": "LineString", "coordinates": [[101.2999845, 2.9363454], [101.2998765, 2.9364532], [101.2997146, 2.9365071], [101.2994988, 2.936561]]}}, {"type": "Feature", "properties": {"len_m": 223.3}, "geometry": {"type": "LineString", "coordinates": [[101.2962066, 2.9364532], [101.2962606, 2.9366688], [101.2962606, 2.9368305], [101.2963146, 2.9369922], [101.2964225, 2.9371539], [101.2965305, 2.9373156], [101.2966384, 2.9374773], [101.2967463, 2.937639], [101.2968003, 2.9378007], [101.2969622, 2.9379624]]}}, {"type": "Feature", "properties": {"len_m": 71.4}, "geometry": {"type": "LineString", "coordinates": [[101.2994988, 2.936561], [101.2993368, 2.9367227], [101.2991749, 2.9367766]]}}, {"type": "Feature", "properties": {"len_m": 60.4}, "geometry": {"type": "LineString", "coordinates": [[101.299013, 2.9368844], [101.2987972, 2.9370461], [101.2985813, 2.9371539]]}}, {"type": "Feature", "properties": {"len_m": 224.7}, "geometry": {"type": "LineString", "coordinates": [[101.299013, 2.9368844], [101.2992289, 2.9371], [101.2993368, 2.9372617], [101.2994448, 2.9374234], [101.2994988, 2.9375851], [101.2995527, 2.9377468], [101.2996607, 2.9379085], [101.2997146, 2.9380702], [101.2998226, 2.9382319], [101.2999305, 2.9383936]]}}, {"type": "Feature", "properties": {"len_m": 73.5}, "geometry": {"type": "LineString", "coordinates": [[101.2985813, 2.9371539], [101.2984194, 2.9372617], [101.2982575, 2.9373156]]}}, {"type": "Feature", "properties": {"len_m": 59.4}, "geometry": {"type": "LineString", "coordinates": [[101.2985813, 2.9371539], [101.2987432, 2.9373695], [101.2987972, 2.9375312]]}}, {"type": "Feature", "properties": {"len_m": 131.8}, "geometry": {"type": "LineString", "coordinates": [[101.2980956, 2.9374773], [101.2978797, 2.9376929], [101.2977178, 2.9377468], [101.2975559, 2.9378007], [101.297394, 2.9379085], [101.297232, 2.9379624]]}}, {"type": "Feature", "properties": {"len_m": 218.7}, "geometry": {"type": "LineString", "coordinates": [[101.2980956, 2.9374773], [101.2982575, 2.9376929], [101.2983114, 2.9378546], [101.2984194, 2.9380163], [101.2985273, 2.938178], [101.2985813, 2.9383397], [101.2986892, 2.9385014], [101.2987432, 2.9386631], [101.2988511, 2.9388248], [101.2989051, 2.9389865]]}}, {"type": "Feature", "properties": {"len_m": 118.3}, "geometry": {"type": "LineString", "coordinates": [[101.299121, 2.9378546], [101.299121, 2.9380163], [101.2992289, 2.938178], [101.2993368, 2.9383397], [101.2993908, 2.9385014], [101.2994448, 2.9386631]]}}, {"type": "Feature", "properties": {"len_m": 225.7}, "geometry": {"type": "LineString", "coordinates": [[101.2971241, 2.9380163], [101.2971241, 2.9382319], [101.2971781, 2.9383936], [101.297232, 2.9385553], [101.29734, 2.938717], [101.297394, 2.9388787], [101.2974479, 2.9390404], [101.2975559, 2.9392021], [101.2976638, 2.9393638], [101.2977717, 2.9395255], [101.2979876, 2.9396333]]}}, {"type": "Feature", "properties": {"len_m": 54.4}, "geometry": {"type": "LineString", "coordinates": [[101.3004162, 2.9383397], [101.3002543, 2.9383936], [101.3000924, 2.9384475]]}}, {"type": "Feature", "properties": {"len_m": 60.4}, "geometry": {"type": "LineString", "coordinates": [[101.2999845, 2.9385014], [101.2998226, 2.9386631], [101.2996607, 2.938717]]}}, {"type": "Feature", "properties": {"len_m": 67.8}, "geometry": {"type": "LineString", "coordinates": [[101.2995527, 2.938717], [101.2993908, 2.9388787], [101.2992289, 2.9389865]]}}, {"type": "Feature", "properties": {"len_m": 131.8}, "geometry": {"type": "LineString", "coordinates": [[101.2989591, 2.9390943], [101.2987972, 2.939256], [101.2986352, 2.939256], [101.2984733, 2.9393638], [101.2983114, 2.9394177], [101.2981495, 2.9395255]]}}, {"type": "Feature", "properties": {"len_m": 210.2}, "geometry": {"type": "LineString", "coordinates": [[101.299121, 2.9390943], [101.2992289, 2.939256], [101.2992829, 2.9394177], [101.2993908, 2.9395794], [101.2994448, 2.9397411], [101.2995527, 2.9399028], [101.2996607, 2.9400645], [101.2997146, 2.9402261], [101.2997686, 2.9403878], [101.2998765, 2.9405495]]}}, {"type": "Feature", "properties": {"len_m": 113.8}, "geometry": {"type": "LineString", "coordinates": [[101.3003083, 2.939256], [101.3004702, 2.9394177], [101.3005781, 2.9395794], [101.3006861, 2.9397411], [101.300794, 2.9399028]]}}, {"type": "Feature", "properties": {"len_m": 105.9}, "geometry": {"type": "LineString", "coordinates": [[101.3000924, 2.9395794], [101.3001464, 2.9397411], [101.3002543, 2.9399028], [101.3003083, 2.9400645], [101.3004162, 2.9402261]]}}, {"type": "Feature", "properties": {"len_m": 221.1}, "geometry": {"type": "LineString", "coordinates": [[101.2979876, 2.9396333], [101.2980416, 2.9398489], [101.2980956, 2.9400106], [101.2980956, 2.9401722], [101.2982035, 2.9403339], [101.2982575, 2.9404956], [101.2983654, 2.9406573], [101.2984733, 2.940819], [101.2986352, 2.9409807], [101.2987432, 2.9411424]]}}, {"type": "Feature", "properties": {"len_m": 26.5}, "geometry": {"type": "LineString", "coordinates": [[101.3012258, 2.9396333], [101.3012797, 2.9398489]]}}, {"type": "Feature", "properties": {"len_m": 48.4}, "geometry": {"type": "LineString", "coordinates": [[101.3012797, 2.9398489], [101.3011178, 2.9399028], [101.300902, 2.9400106]]}}, {"type": "Feature", "properties": {"len_m": 140.3}, "geometry": {"type": "LineString", "coordinates": [[101.3012797, 2.9398489], [101.3014956, 2.9400106], [101.3016575, 2.9401722], [101.3017115, 2.9403339], [101.3017655, 2.9404956], [101.3018734, 2.9406573], [101.3019274, 2.940819]]}}, {"type": "Feature", "properties": {"len_m": 67.6}, "geometry": {"type": "LineString", "coordinates": [[101.300902, 2.9400106], [101.3006861, 2.9401722], [101.3004702, 2.9403878]]}}, {"type": "Feature", "properties": {"len_m": 74.9}, "geometry": {"type": "LineString", "coordinates": [[101.300902, 2.9400106], [101.3010639, 2.9402261], [101.3010639, 2.9403878], [101.3011178, 2.9406034]]}}, {"type": "Feature", "properties": {"len_m": 61.8}, "geometry": {"type": "LineString", "coordinates": [[101.3004702, 2.9403878], [101.3002543, 2.9404417], [101.3000924, 2.9405495]]}}, {"type": "Feature", "properties": {"len_m": 61.8}, "geometry": {"type": "LineString", "coordinates": [[101.3004702, 2.9403878], [101.3006321, 2.9406034], [101.300848, 2.9407651]]}}, {"type": "Feature", "properties": {"len_m": 37.5}, "geometry": {"type": "LineString", "coordinates": [[101.3011178, 2.9406034], [101.3009559, 2.9407112]]}}, {"type": "Feature", "properties": {"len_m": 153.7}, "geometry": {"type": "LineString", "coordinates": [[101.3011178, 2.9406034], [101.3013337, 2.9407651], [101.3014416, 2.9409268], [101.3015496, 2.9410885], [101.3016575, 2.9412502], [101.3017115, 2.9414119], [101.3017655, 2.9415736]]}}, {"type": "Feature", "properties": {"len_m": 145.2}, "geometry": {"type": "LineString", "coordinates": [[101.2999845, 2.9406034], [101.2997686, 2.9407651], [101.2996067, 2.940819], [101.2994448, 2.9408729], [101.2992829, 2.9409807], [101.299121, 2.9410346], [101.2989051, 2.9411963]]}}, {"type": "Feature", "properties": {"len_m": 212.7}, "geometry": {"type": "LineString", "coordinates": [[101.2999845, 2.9406034], [101.3001464, 2.940819], [101.3002004, 2.9409807], [101.3002543, 2.9411424], [101.3003623, 2.9413041], [101.3004162, 2.9414658], [101.3005242, 2.9416275], [101.3005781, 2.9417892], [101.3006861, 2.9419509], [101.300848, 2.9421665]]}}, {"type": "Feature", "properties": {"len_m": 150.9}, "geometry": {"type": "LineString", "coordinates": [[101.300848, 2.9407651], [101.300902, 2.9409807], [101.3010099, 2.9411424], [101.3010639, 2.9413041], [101.3011718, 2.9414658], [101.3011718, 2.9416275], [101.3012797, 2.9417892]]}}, {"type": "Feature", "properties": {"len_m": 54.4}, "geometry": {"type": "LineString", "coordinates": [[101.3027369, 2.9411424], [101.302575, 2.9411963], [101.3024131, 2.941358]]}}, {"type": "Feature", "properties": {"len_m": 225.7}, "geometry": {"type": "LineString", "coordinates": [[101.2989051, 2.9411963], [101.2989591, 2.9414119], [101.2989591, 2.9415736], [101.299013, 2.9417353], [101.299067, 2.941897], [101.299121, 2.9420587], [101.2992289, 2.9422204], [101.2993368, 2.9423821], [101.2994988, 2.9425438], [101.2996067, 2.9427055], [101.2998226, 2.9427594]]}}, {"type": "Feature", "properties": {"len_m": 29.0}, "geometry": {"type": "LineString", "coordinates": [[101.3020893, 2.9411963], [101.3021432, 2.941358]]}}, {"type": "Feature", "properties": {"len_m": 54.4}, "geometry": {"type": "LineString", "coordinates": [[101.3021972, 2.9414119], [101.3020353, 2.9415197], [101.3018194, 2.9416814]]}}, {"type": "Feature", "properties": {"len_m": 184.8}, "geometry": {"type": "LineString", "coordinates": [[101.3023591, 2.9414119], [101.3024671, 2.9416275], [101.302575, 2.9417892], [101.302629, 2.9419509], [101.3026829, 2.9421126], [101.3027909, 2.9422743], [101.3028988, 2.942436], [101.3028988, 2.9425977], [101.3030067, 2.9428133]]}}, {"type": "Feature", "properties": {"len_m": 56.9}, "geometry": {"type": "LineString", "coordinates": [[101.3018194, 2.9416814], [101.3016036, 2.9417353], [101.3013877, 2.941897]]}}, {"type": "Feature", "properties": {"len_m": 82.3}, "geometry": {"type": "LineString", "coordinates": [[101.3018194, 2.9416814], [101.3019813, 2.9418431], [101.3020353, 2.9420048], [101.3020893, 2.9421665]]}}, {"type": "Feature", "properties": {"len_m": 72.4}, "geometry": {"type": "LineString", "coordinates": [[101.3013877, 2.941897], [101.3011718, 2.9420048], [101.3010099, 2.9420587]]}}, {"type": "Feature", "properties": {"len_m": 72.8}, "geometry": {"type": "LineString", "coordinates": [[101.3013877, 2.941897], [101.3015496, 2.9421126], [101.3016575, 2.9422743]]}}, {"type": "Feature", "properties": {"len_m": 141.3}, "geometry": {"type": "LineString", "coordinates": [[101.300848, 2.9421665], [101.3006321, 2.9423821], [101.3004702, 2.9423821], [101.3003083, 2.942436], [101.3001464, 2.9425438], [101.2999845, 2.9425977], [101.2998226, 2.9427594]]}}, {"type": "Feature", "properties": {"len_m": 212.3}, "geometry": {"type": "LineString", "coordinates": [[101.300848, 2.9421665], [101.3010099, 2.9423821], [101.3010639, 2.9425438], [101.3010639, 2.9427055], [101.3011718, 2.9428672], [101.3012797, 2.9430289], [101.3013877, 2.9431906], [101.3014956, 2.9433523], [101.3016036, 2.943514]]}}, {"type": "Feature", "properties": {"len_m": 45.9}, "geometry": {"type": "LineString", "coordinates": [[101.3021432, 2.9422743], [101.3019274, 2.9423282]]}}, {"type": "Feature", "properties": {"len_m": 85.5}, "geometry": {"type": "LineString", "coordinates": [[101.3021432, 2.9422743], [101.3022512, 2.942436], [101.3022512, 2.9425977], [101.3023051, 2.9427594], [101.3023051, 2.942975]]}}, {"type": "Feature", "properties": {"len_m": 119.7}, "geometry": {"type": "LineString", "coordinates": [[101.3039242, 2.9423821], [101.3037083, 2.9424899], [101.3035464, 2.9425438], [101.3033845, 2.9425977], [101.3032226, 2.9427055], [101.3030067, 2.9428133]]}}, {"type": "Feature", "properties": {"len_m": 326.1}, "geometry": {"type": "LineString", "coordinates": [[101.3039242, 2.9423821], [101.3041401, 2.9425438], [101.304248, 2.9427055], [101.304356, 2.9428672], [101.3044099, 2.9430289], [101.3045179, 2.9431906], [101.3046258, 2.9433523], [101.3046798, 2.943514], [101.3047338, 2.9436757], [101.3047877, 2.9438374], [101.3046798, 2.9439991], [101.3045179, 2.944053], [101.304356, 2.9441608], [101.3041941, 2.9442147], [101.3040322, 2.9443224]]}}, {"type": "Feature", "properties": {"len_m": 100.3}, "geometry": {"type": "LineString", "coordinates": [[101.3017655, 2.9423821], [101.3018194, 2.9425977], [101.3019274, 2.9427594], [101.3020893, 2.9428133], [101.3023051, 2.942975]]}}, {"type": "Feature", "properties": {"len_m": 191.8}, "geometry": {"type": "LineString", "coordinates": [[101.2998226, 2.9427594], [101.2998765, 2.942975], [101.2998765, 2.9431367], [101.2999305, 2.9432984], [101.2999845, 2.9434601], [101.3000924, 2.9436218], [101.3001464, 2.9437835], [101.3003083, 2.9439452], [101.3004702, 2.9441069]]}}, {"type": "Feature", "properties": {"len_m": 47.9}, "geometry": {"type": "LineString", "coordinates": [[101.3030067, 2.9428133], [101.3027369, 2.9428672]]}}, {"type": "Feature", "properties": {"len_m": 68.9}, "geometry": {"type": "LineString", "coordinates": [[101.3030067, 2.9428133], [101.3031687, 2.9430289], [101.3032226, 2.9431906]]}}, {"type": "Feature", "properties": {"len_m": 36.0}, "geometry": {"type": "LineString", "coordinates": [[101.3023051, 2.942975], [101.302521, 2.942975]]}}, {"type": "Feature", "properties": {"len_m": 74.9}, "geometry": {"type": "LineString", "coordinates": [[101.3023051, 2.942975], [101.3021972, 2.9431906], [101.3021432, 2.9433523], [101.3020893, 2.9435679]]}}, {"type": "Feature", "properties": {"len_m": 130.8}, "geometry": {"type": "LineString", "coordinates": [[101.302629, 2.942975], [101.3027909, 2.9431906], [101.3028988, 2.9433523], [101.3029528, 2.943514], [101.3030607, 2.9436757], [101.3032226, 2.9438374]]}}, {"type": "Feature", "properties": {"len_m": 51.6}, "geometry": {"type": "LineString", "coordinates": [[101.3020893, 2.9435679], [101.3018734, 2.9435679]]}}, {"type": "Feature", "properties": {"len_m": 198.2}, "geometry": {"type": "LineString", "coordinates": [[101.3020893, 2.9435679], [101.3022512, 2.9437296], [101.3024131, 2.9437835], [101.302575, 2.9439452], [101.3026829, 2.9441069], [101.3027369, 2.9442685], [101.3027909, 2.9444302], [101.3028448, 2.9445919], [101.3028988, 2.9447536]]}}, {"type": "Feature", "properties": {"len_m": 142.3}, "geometry": {"type": "LineString", "coordinates": [[101.3017115, 2.9437296], [101.3014956, 2.9438913], [101.3013337, 2.9439452], [101.3011718, 2.9439452], [101.3010099, 2.9439991], [101.300848, 2.9439991], [101.3006861, 2.944053]]}}, {"type": "Feature", "properties": {"len_m": 183.8}, "geometry": {"type": "LineString", "coordinates": [[101.3017115, 2.9437296], [101.3018734, 2.9439452], [101.3019274, 2.9441069], [101.3020353, 2.9442685], [101.3021432, 2.9444302], [101.3021972, 2.9445919], [101.3023591, 2.9447536], [101.302521, 2.9449153]]}}, {"type": "Feature", "properties": {"len_m": 32.5}, "geometry": {"type": "LineString", "coordinates": [[101.3035464, 2.9438374], [101.3033845, 2.9438913]]}}, {"type": "Feature", "properties": {"len_m": 78.4}, "geometry": {"type": "LineString", "coordinates": [[101.3032766, 2.9438913], [101.3032766, 2.9441069], [101.3033306, 2.9442685], [101.3034925, 2.9444302]]}}, {"type": "Feature", "properties": {"len_m": 428.6}, "geometry": {"type": "LineString", "coordinates": [[101.3005781, 2.9441069], [101.3006321, 2.9443224], [101.3006321, 2.9444841], [101.3006861, 2.9446458], [101.30074, 2.9448075], [101.300794, 2.9449692], [101.300902, 2.9451309], [101.3009559, 2.9452926], [101.3010639, 2.9454543], [101.3011718, 2.945616], [101.3012258, 2.9457777], [101.3013337, 2.9459394], [101.3014416, 2.9461011], [101.3015496, 2.9462628], [101.3016036, 2.9464245], [101.3017115, 2.9465862], [101.3018194, 2.9467479], [101.3019813, 2.9469096], [101.3020893, 2.9470713], [101.3023051, 2.9471791]]}}, {"type": "Feature", "properties": {"len_m": 55.4}, "geometry": {"type": "LineString", "coordinates": [[101.3040322, 2.9444302], [101.3038163, 2.9444841], [101.3036544, 2.9444841]]}}, {"type": "Feature", "properties": {"len_m": 193.2}, "geometry": {"type": "LineString", "coordinates": [[101.3040322, 2.9444302], [101.3041941, 2.9445919], [101.304248, 2.9447536], [101.304356, 2.9449153], [101.304356, 2.945077], [101.3044639, 2.9452387], [101.3046258, 2.9454004], [101.3046258, 2.9455621], [101.3046798, 2.9457238]]}}, {"type": "Feature", "properties": {"len_m": 90.4}, "geometry": {"type": "LineString", "coordinates": [[101.3035464, 2.9444841], [101.3034925, 2.9446997], [101.3033306, 2.9447536], [101.3031687, 2.9447536]]}}, {"type": "Feature", "properties": {"len_m": 44.5}, "geometry": {"type": "LineString", "coordinates": [[101.3030067, 2.9449153], [101.3027909, 2.9449153]]}}, {"type": "Feature", "properties": {"len_m": 204.2}, "geometry": {"type": "LineString", "coordinates": [[101.3030067, 2.9449153], [101.3032226, 2.945077], [101.3033306, 2.9452387], [101.3034385, 2.9454004], [101.3035464, 2.9455621], [101.3036004, 2.9457238], [101.3037083, 2.9458855], [101.3037623, 2.9460472], [101.3038163, 2.9462089], [101.3038703, 2.9463706]]}}, {"type": "Feature", "properties": {"len_m": 214.8}, "geometry": {"type": "LineString", "coordinates": [[101.302629, 2.9449692], [101.3026829, 2.9451848], [101.3027369, 2.9453465], [101.3027909, 2.9455082], [101.3028448, 2.9456699], [101.3029528, 2.9458316], [101.3030067, 2.9459933], [101.3031147, 2.946155], [101.3031687, 2.9463167], [101.3032226, 2.9464784], [101.3032766, 2.9466401]]}}, {"type": "Feature", "properties": {"len_m": 50.5}, "geometry": {"type": "LineString", "coordinates": [[101.3051655, 2.9458316], [101.3050036, 2.9458855], [101.3048417, 2.9458855]]}}, {"type": "Feature", "properties": {"len_m": 66.4}, "geometry": {"type": "LineString", "coordinates": [[101.3047338, 2.9458855], [101.3046258, 2.9461011], [101.3044639, 2.9461011]]}}, {"type": "Feature", "properties": {"len_m": 33.9}, "geometry": {"type": "LineString", "coordinates": [[101.3041941, 2.9458855], [101.304248, 2.9460472]]}}, {"type": "Feature", "properties": {"len_m": 60.4}, "geometry": {"type": "LineString", "coordinates": [[101.304302, 2.946155], [101.3041401, 2.9463167], [101.3039782, 2.9463167]]}}, {"type": "Feature", "properties": {"len_m": 78.4}, "geometry": {"type": "LineString", "coordinates": [[101.3038703, 2.9463706], [101.3037083, 2.9465323], [101.3035464, 2.9465862], [101.3033845, 2.9466401]]}}, {"type": "Feature", "properties": {"len_m": 43.0}, "geometry": {"type": "LineString", "coordinates": [[101.3032766, 2.9466401], [101.3032766, 2.9468557]]}}, {"type": "Feature", "properties": {"len_m": 120.4}, "geometry": {"type": "LineString", "coordinates": [[101.3033306, 2.9470174], [101.3030607, 2.9470174], [101.3028988, 2.9470174], [101.3027369, 2.9470713], [101.302575, 2.9470713], [101.3024131, 2.9471252]]}}, {"type": "Feature", "properties": {"len_m": 74.6}, "geometry": {"type": "LineString", "coordinates": [[101.3033306, 2.9470174], [101.3036004, 2.9471791], [101.3036544, 2.9473408]]}}, {"type": "Feature", "properties": {"len_m": 77.9}, "geometry": {"type": "LineString", "coordinates": [[101.3033306, 2.9470174], [101.3033845, 2.9472869], [101.3034385, 2.9474486], [101.3036544, 2.9475025]]}}, {"type": "Feature", "properties": {"len_m": 461.0}, "geometry": {"type": "LineString", "coordinates": [[101.3023051, 2.9471791], [101.3023591, 2.9473947], [101.3023591, 2.9475564], [101.3024131, 2.9477181], [101.3024671, 2.9478798], [101.302521, 2.9480415], [101.302629, 2.9482032], [101.3027369, 2.9483648], [101.3028448, 2.9485265], [101.3028988, 2.9486882], [101.3030067, 2.9488499], [101.3031687, 2.9490116], [101.3033306, 2.9491733], [101.3034385, 2.949335], [101.3035464, 2.9494967], [101.3036544, 2.9496584], [101.3037083, 2.9498201], [101.3038163, 2.9499818], [101.3039242, 2.9501435], [101.3039782, 2.9503052], [101.3039782, 2.9504669], [101.3039782, 2.9506286]]}}, {"type": "Feature", "properties": {"len_m": 354.1}, "geometry": {"type": "LineString", "coordinates": [[101.3036544, 2.9475025], [101.3038163, 2.9476103], [101.3039782, 2.947772], [101.3040861, 2.9479337], [101.3041401, 2.9480954], [101.304248, 2.9482571], [101.304302, 2.9484187], [101.3044099, 2.9485804], [101.3045179, 2.9487421], [101.3046258, 2.9489038], [101.3046798, 2.9490655], [101.3047877, 2.9492272], [101.3048957, 2.9493889], [101.3050036, 2.9495506], [101.3051115, 2.9497123], [101.3052735, 2.949874]]}}, {"type": "Feature", "properties": {"len_m": 33.9}, "geometry": {"type": "LineString", "coordinates": [[101.3057592, 2.9496045], [101.3057052, 2.9497662]]}}, {"type": "Feature", "properties": {"len_m": 30.0}, "geometry": {"type": "LineString", "coordinates": [[101.3053814, 2.949874], [101.3056512, 2.949874]]}}, {"type": "Feature", "properties": {"len_m": 398.5}, "geometry": {"type": "LineString", "coordinates": [[101.3056512, 2.949874], [101.3058131, 2.9500357], [101.3059211, 2.9501974], [101.306029, 2.9503591], [101.306137, 2.9505208], [101.3061909, 2.9506825], [101.3062989, 2.9508442], [101.3064068, 2.9510059], [101.3063528, 2.9511676], [101.3061909, 2.9512215], [101.306029, 2.9511676], [101.3058671, 2.9510059], [101.3058131, 2.9508442], [101.3057052, 2.9506825], [101.3055973, 2.9505208], [101.3055433, 2.9503591], [101.3054354, 2.9501974], [101.3053814, 2.9500357]]}}]}